{
  "type": "FeatureCollection",
  "features": [
    {
      "type": "Feature",
      "properties": {
        "norad_id": 57400,
        "name": "TIANMU-1 08",
        "group": "weather",
        "lat": -44.21643391315507,
        "lon": -152.17915408048586,
        "alt_km": 492.3005094729542,
        "timestamp": "2025-12-11T07:02:23.376713+00:00",
        "meta_object_name": "TIANMU-1 08",
        "meta_object_id": "2023-101B",
        "meta_epoch": "2025-12-10T22:12:07.736256",
        "meta_mean_motion": 15.28010728,
        "meta_eccentricity": 0.00075755,
        "meta_inclination": 97.2867,
        "meta_ra_of_asc_node": 34.6129,
        "meta_arg_of_pericenter": 88.9003,
        "meta_mean_anomaly": 271.3104,
        "meta_ephemeris_type": 0,
        "meta_classification_type": "U",
        "meta_norad_cat_id": 57400,
        "meta_element_set_no": 999,
        "meta_rev_at_epoch": 13287,
        "meta_bstar": 0.00037790671,
        "meta_mean_motion_dot": 0.00010266,
        "meta_mean_motion_ddot": 0,
        "tle_line1": "1 57400U 23101B   25344.92508954  .00010266  00000+0  37791-3 0  9997",
        "tle_line2": "2 57400  97.2867  34.6129 0007575  88.9003 271.3104 15.28010728132877"
      },
      "geometry": {
        "type": "Point",
        "coordinates": [
          -152.17915408048586,
          -44.21643391315507
        ]
      }
    },
    {
      "type": "Feature",
      "properties": {
        "norad_id": 57401,
        "name": "TIANMU-1 09",
        "group": "weather",
        "lat": -62.191437790792854,
        "lon": 48.51867425005236,
        "alt_km": 492.93489108952963,
        "timestamp": "2025-12-11T07:02:23.376725+00:00",
        "meta_object_name": "TIANMU-1 09",
        "meta_object_id": "2023-101C",
        "meta_epoch": "2025-12-10T23:27:26.828640",
        "meta_mean_motion": 15.28040116,
        "meta_eccentricity": 0.00068084,
        "meta_inclination": 97.2823,
        "meta_ra_of_asc_node": 34.1784,
        "meta_arg_of_pericenter": 88.649,
        "meta_mean_anomaly": 271.553,
        "meta_ephemeris_type": 0,
        "meta_classification_type": "U",
        "meta_norad_cat_id": 57401,
        "meta_element_set_no": 999,
        "meta_rev_at_epoch": 13288,
        "meta_bstar": 0.00041653487,
        "meta_mean_motion_dot": 0.00011332,
        "meta_mean_motion_ddot": 0,
        "tle_line1": "1 57401U 23101C   25344.97739385  .00011332  00000+0  41653-3 0  9994",
        "tle_line2": "2 57401  97.2823  34.1784 0006808  88.6490 271.5530 15.28040116132887"
      },
      "geometry": {
        "type": "Point",
        "coordinates": [
          48.51867425005236,
          -62.191437790792854
        ]
      }
    },
    {
      "type": "Feature",
      "properties": {
        "norad_id": 57402,
        "name": "TIANMU-1 10",
        "group": "weather",
        "lat": 69.64594920783769,
        "lon": -124.47738315612786,
        "alt_km": 469.4771067751399,
        "timestamp": "2025-12-11T07:02:23.376735+00:00",
        "meta_object_name": "TIANMU-1 10",
        "meta_object_id": "2023-101D",
        "meta_epoch": "2025-12-10T22:42:24.194304",
        "meta_mean_motion": 15.28030566,
        "meta_eccentricity": 0.00085799,
        "meta_inclination": 97.2904,
        "meta_ra_of_asc_node": 34.9957,
        "meta_arg_of_pericenter": 88.6162,
        "meta_mean_anomaly": 271.6061,
        "meta_ephemeris_type": 0,
        "meta_classification_type": "U",
        "meta_norad_cat_id": 57402,
        "meta_element_set_no": 999,
        "meta_rev_at_epoch": 13287,
        "meta_bstar": 0.00041628343,
        "meta_mean_motion_dot": 0.00011326,
        "meta_mean_motion_ddot": 0,
        "tle_line1": "1 57402U 23101D   25344.94611336  .00011326  00000+0  41628-3 0  9992",
        "tle_line2": "2 57402  97.2904  34.9957 0008579  88.6162 271.6061 15.28030566132878"
      },
      "geometry": {
        "type": "Point",
        "coordinates": [
          -124.47738315612786,
          69.64594920783769
        ]
      }
    },
    {
      "type": "Feature",
      "properties": {
        "norad_id": 57490,
        "name": "FENGYUN 3F",
        "group": "weather",
        "lat": -30.637958240161733,
        "lon": -131.59863750250065,
        "alt_km": 831.8393095393039,
        "timestamp": "2025-12-11T07:02:23.376772+00:00",
        "meta_object_name": "FENGYUN 3F",
        "meta_object_id": "2023-111A",
        "meta_epoch": "2025-12-10T23:17:04.747776",
        "meta_mean_motion": 14.19892846,
        "meta_eccentricity": 6.56e-05,
        "meta_inclination": 98.7086,
        "meta_ra_of_asc_node": 53.2921,
        "meta_arg_of_pericenter": 98.2604,
        "meta_mean_anomaly": 261.8647,
        "meta_ephemeris_type": 0,
        "meta_classification_type": "U",
        "meta_norad_cat_id": 57490,
        "meta_element_set_no": 999,
        "meta_rev_at_epoch": 12215,
        "meta_bstar": 8.3139572e-05,
        "meta_mean_motion_dot": 1.33e-06,
        "meta_mean_motion_ddot": 0,
        "tle_line1": "1 57490U 23111A   25344.97019384  .00000133  00000+0  83140-4 0  9998",
        "tle_line2": "2 57490  98.7086  53.2921 0000656  98.2604 261.8647 14.19892846122150"
      },
      "geometry": {
        "type": "Point",
        "coordinates": [
          -131.59863750250065,
          -30.637958240161733
        ]
      }
    },
    {
      "type": "Feature",
      "properties": {
        "norad_id": 58584,
        "name": "ARKTIKA-M 2",
        "group": "weather",
        "lat": -24.11759907336492,
        "lon": 8.11204976603487,
        "alt_km": 4157.829901540218,
        "timestamp": "2025-12-11T07:02:23.376787+00:00",
        "meta_object_name": "ARKTIKA-M 2",
        "meta_object_id": "2023-198A",
        "meta_epoch": "2025-12-08T20:10:13.977120",
        "meta_mean_motion": 2.0060476,
        "meta_eccentricity": 0.68646991,
        "meta_inclination": 63.2247,
        "meta_ra_of_asc_node": 175.3152,
        "meta_arg_of_pericenter": 268.1185,
        "meta_mean_anomaly": 18.8267,
        "meta_ephemeris_type": 0,
        "meta_classification_type": "U",
        "meta_norad_cat_id": 58584,
        "meta_element_set_no": 999,
        "meta_rev_at_epoch": 1450,
        "meta_bstar": 0,
        "meta_mean_motion_dot": 1.66e-06,
        "meta_mean_motion_ddot": 0,
        "tle_line1": "1 58584U 23198A   25342.84043955  .00000166  00000+0  00000+0 0  9998",
        "tle_line2": "2 58584  63.2247 175.3152 6864699 268.1185  18.8267  2.00604760 14506"
      },
      "geometry": {
        "type": "Point",
        "coordinates": [
          8.11204976603487,
          -24.11759907336492
        ]
      }
    },
    {
      "type": "Feature",
      "properties": {
        "norad_id": 58645,
        "name": "TIANMU-1 11",
        "group": "weather",
        "lat": -53.29570711237309,
        "lon": 14.928040906105243,
        "alt_km": 493.67624377746506,
        "timestamp": "2025-12-11T07:02:23.376800+00:00",
        "meta_object_name": "TIANMU-1 11",
        "meta_object_id": "2023-205A",
        "meta_epoch": "2025-12-10T23:23:58.380864",
        "meta_mean_motion": 15.24563448,
        "meta_eccentricity": 0.00080579,
        "meta_inclination": 97.3611,
        "meta_ra_of_asc_node": 4.629,
        "meta_arg_of_pericenter": 317.7689,
        "meta_mean_anomaly": 42.2927,
        "meta_ephemeris_type": 0,
        "meta_classification_type": "U",
        "meta_norad_cat_id": 58645,
        "meta_element_set_no": 999,
        "meta_rev_at_epoch": 10882,
        "meta_bstar": 0.00036636091,
        "meta_mean_motion_dot": 8.963e-05,
        "meta_mean_motion_ddot": 0,
        "tle_line1": "1 58645U 23205A   25344.97498126  .00008963  00000+0  36636-3 0  9996",
        "tle_line2": "2 58645  97.3611   4.6290 0008057 317.7689  42.2927 15.24563448108826"
      },
      "geometry": {
        "type": "Point",
        "coordinates": [
          14.928040906105243,
          -53.29570711237309
        ]
      }
    },
    {
      "type": "Feature",
      "properties": {
        "norad_id": 58646,
        "name": "TIANMU-1 12",
        "group": "weather",
        "lat": 20.776178959592734,
        "lon": -172.44133957381234,
        "alt_km": 495.5739649360721,
        "timestamp": "2025-12-11T07:02:23.376811+00:00",
        "meta_object_name": "TIANMU-1 12",
        "meta_object_id": "2023-205B",
        "meta_epoch": "2025-12-11T00:02:34.889280",
        "meta_mean_motion": 15.24445493,
        "meta_eccentricity": 0.00059564,
        "meta_inclination": 97.3599,
        "meta_ra_of_asc_node": 4.4615,
        "meta_arg_of_pericenter": 299.1808,
        "meta_mean_anomaly": 60.8834,
        "meta_ephemeris_type": 0,
        "meta_classification_type": "U",
        "meta_norad_cat_id": 58646,
        "meta_element_set_no": 999,
        "meta_rev_at_epoch": 10881,
        "meta_bstar": 0.00040066523,
        "meta_mean_motion_dot": 9.772e-05,
        "meta_mean_motion_ddot": 0,
        "tle_line1": "1 58646U 23205B   25345.00179270  .00009772  00000+0  40067-3 0  9990",
        "tle_line2": "2 58646  97.3599   4.4615 0005956 299.1808  60.8834 15.24445493108813"
      },
      "geometry": {
        "type": "Point",
        "coordinates": [
          -172.44133957381234,
          20.776178959592734
        ]
      }
    }
  ]
}